{"fetched_at":"2026-07-19T17:31:14.814Z","source":"https://celestrak.org/NORAD/elements/gp.php?GROUP=spire&FORMAT=JSON","constellation":"spire","records":[{"OBJECT_NAME":"LEMUR-1","OBJECT_ID":"2014-033AL","EPOCH":"2026-07-19T03:48:34.463808","CLASSIFICATION_TYPE":"U","MEAN_MOTION":14.85343146,"ECCENTRICITY":0.00474094,"INCLINATION":97.7914,"RA_OF_ASC_NODE":349.262,"ARG_OF_PERICENTER":334.7797,"MEAN_ANOMALY":25.1103,"EPHEMERIS_TYPE":0,"NORAD_CAT_ID":40044,"ELEMENT_SET_NO":999,"REV_AT_EPOCH":65021,"BSTAR":0.000085930136,"MEAN_MOTION_DOT":0.00000697,"MEAN_MOTION_DDOT":0},{"OBJECT_NAME":"LEMUR-2-GREENBERG","OBJECT_ID":"2017-042N","EPOCH":"2026-07-18T23:10:12.175680","CLASSIFICATION_TYPE":"U","MEAN_MOTION":15.32225124,"ECCENTRICITY":0.00073991,"INCLINATION":97.3838,"RA_OF_ASC_NODE":20.4677,"ARG_OF_PERICENTER":243.6976,"MEAN_ANOMALY":116.3506,"EPHEMERIS_TYPE":0,"NORAD_CAT_ID":42837,"ELEMENT_SET_NO":999,"REV_AT_EPOCH":49325,"BSTAR":0.00030569296,"MEAN_MOTION_DOT":0.00009442,"MEAN_MOTION_DDOT":0},{"OBJECT_NAME":"LEMUR-2-ANDIS","OBJECT_ID":"2017-042P","EPOCH":"2026-07-18T23:37:06.352320","CLASSIFICATION_TYPE":"U","MEAN_MOTION":15.36020423,"ECCENTRICITY":0.00073829,"INCLINATION":97.369,"RA_OF_ASC_NODE":20.7854,"ARG_OF_PERICENTER":242.5836,"MEAN_ANOMALY":117.4657,"EPHEMERIS_TYPE":0,"NORAD_CAT_ID":42838,"ELEMENT_SET_NO":999,"REV_AT_EPOCH":49333,"BSTAR":0.0003698312,"MEAN_MOTION_DOT":0.00012908,"MEAN_MOTION_DDOT":0},{"OBJECT_NAME":"LEMUR-2-MONSON","OBJECT_ID":"2017-042Q","EPOCH":"2026-07-19T01:03:14.947200","CLASSIFICATION_TYPE":"U","MEAN_MOTION":15.28814251,"ECCENTRICITY":0.00055546,"INCLINATION":97.41,"RA_OF_ASC_NODE":20.4679,"ARG_OF_PERICENTER":228.8688,"MEAN_ANOMALY":131.2073,"EPHEMERIS_TYPE":0,"NORAD_CAT_ID":42839,"ELEMENT_SET_NO":999,"REV_AT_EPOCH":49303,"BSTAR":0.00029523745,"MEAN_MOTION_DOT":0.00008196,"MEAN_MOTION_DDOT":0},{"OBJECT_NAME":"LEMUR-2-FURIAUS","OBJECT_ID":"2017-042R","EPOCH":"2026-07-19T07:22:57.122976","CLASSIFICATION_TYPE":"U","MEAN_MOTION":15.31210125,"ECCENTRICITY":0.00057076,"INCLINATION":97.3788,"RA_OF_ASC_NODE":18.6914,"ARG_OF_PERICENTER":311.7105,"MEAN_ANOMALY":48.3647,"EPHEMERIS_TYPE":0,"NORAD_CAT_ID":42840,"ELEMENT_SET_NO":999,"REV_AT_EPOCH":49312,"BSTAR":0.00030778259,"MEAN_MOTION_DOT":0.00009207,"MEAN_MOTION_DDOT":0},{"OBJECT_NAME":"LEMUR-2-PETERG","OBJECT_ID":"2017-042S","EPOCH":"2026-07-19T05:57:01.230624","CLASSIFICATION_TYPE":"U","MEAN_MOTION":15.35119284,"ECCENTRICITY":0.00036152,"INCLINATION":97.4001,"RA_OF_ASC_NODE":25.3614,"ARG_OF_PERICENTER":203.0098,"MEAN_ANOMALY":157.0984,"EPHEMERIS_TYPE":0,"NORAD_CAT_ID":42841,"ELEMENT_SET_NO":999,"REV_AT_EPOCH":49335,"BSTAR":0.00031516451,"MEAN_MOTION_DOT":0.00010666,"MEAN_MOTION_DDOT":0},{"OBJECT_NAME":"LEMUR-2-DEMBITZ","OBJECT_ID":"2017-042T","EPOCH":"2026-07-19T00:00:56.881440","CLASSIFICATION_TYPE":"U","MEAN_MOTION":15.31179515,"ECCENTRICITY":0.00051273,"INCLINATION":97.3837,"RA_OF_ASC_NODE":21.4327,"ARG_OF_PERICENTER":256.6809,"MEAN_ANOMALY":103.3861,"EPHEMERIS_TYPE":0,"NORAD_CAT_ID":42842,"ELEMENT_SET_NO":999,"REV_AT_EPOCH":49321,"BSTAR":0.00029648826,"MEAN_MOTION_DOT":0.00008857,"MEAN_MOTION_DDOT":0},{"OBJECT_NAME":"LEMUR-2-ZACHARY","OBJECT_ID":"2017-042W","EPOCH":"2026-07-19T05:46:51.188736","CLASSIFICATION_TYPE":"U","MEAN_MOTION":15.52965979,"ECCENTRICITY":0.00028168,"INCLINATION":97.358,"RA_OF_ASC_NODE":32.6222,"ARG_OF_PERICENTER":225.977,"MEAN_ANOMALY":134.1251,"EPHEMERIS_TYPE":0,"NORAD_CAT_ID":42845,"ELEMENT_SET_NO":999,"REV_AT_EPOCH":49417,"BSTAR":0.00047359452,"MEAN_MOTION_DOT":0.00029465,"MEAN_MOTION_DDOT":0},{"OBJECT_NAME":"LEMUR-2-AMANDA-SVANTE","OBJECT_ID":"2021-034B","EPOCH":"2026-07-19T03:56:11.226912","CLASSIFICATION_TYPE":"U","MEAN_MOTION":15.36109547,"ECCENTRICITY":0.00048007,"INCLINATION":97.5741,"RA_OF_ASC_NODE":279.3353,"ARG_OF_PERICENTER":134.5168,"MEAN_ANOMALY":225.6469,"EPHEMERIS_TYPE":0,"NORAD_CAT_ID":48269,"ELEMENT_SET_NO":999,"REV_AT_EPOCH":28596,"BSTAR":0.00052088061,"MEAN_MOTION_DOT":0.00018266,"MEAN_MOTION_DDOT":0},{"OBJECT_NAME":"LEMUR-2-SPECIAL-K","OBJECT_ID":"2021-034F","EPOCH":"2026-07-19T04:59:29.350176","CLASSIFICATION_TYPE":"U","MEAN_MOTION":15.76151622,"ECCENTRICITY":0.00063341,"INCLINATION":97.5626,"RA_OF_ASC_NODE":289.66,"ARG_OF_PERICENTER":211.0014,"MEAN_ANOMALY":149.0878,"EPHEMERIS_TYPE":0,"NORAD_CAT_ID":48273,"ELEMENT_SET_NO":999,"REV_AT_EPOCH":28671,"BSTAR":0.0011188334,"MEAN_MOTION_DOT":0.0017771,"MEAN_MOTION_DDOT":0},{"OBJECT_NAME":"LEMUR-2-EMBRIONOVIS","OBJECT_ID":"2023-084AQ","EPOCH":"2026-07-18T22:52:11.709984","CLASSIFICATION_TYPE":"U","MEAN_MOTION":15.38290239,"ECCENTRICITY":0.00086498,"INCLINATION":97.6332,"RA_OF_ASC_NODE":345.3962,"ARG_OF_PERICENTER":192.3713,"MEAN_ANOMALY":167.732,"EPHEMERIS_TYPE":0,"NORAD_CAT_ID":56970,"ELEMENT_SET_NO":999,"REV_AT_EPOCH":17256,"BSTAR":0.00020967417,"MEAN_MOTION_DOT":0.00007833,"MEAN_MOTION_DDOT":0},{"OBJECT_NAME":"LEMUR-2-DEVERILL-M-T","OBJECT_ID":"2023-100F","EPOCH":"2026-07-19T01:28:33.762432","CLASSIFICATION_TYPE":"U","MEAN_MOTION":15.41208729,"ECCENTRICITY":0.0004757,"INCLINATION":99.4445,"RA_OF_ASC_NODE":248.0651,"ARG_OF_PERICENTER":280.7582,"MEAN_ANOMALY":79.3122,"EPHEMERIS_TYPE":0,"NORAD_CAT_ID":57391,"ELEMENT_SET_NO":999,"REV_AT_EPOCH":16615,"BSTAR":0.00036593481,"MEAN_MOTION_DOT":0.0001509,"MEAN_MOTION_DDOT":0},{"OBJECT_NAME":"LEMUR-2-BASS","OBJECT_ID":"2023-174D","EPOCH":"2026-07-19T05:36:42.952608","CLASSIFICATION_TYPE":"U","MEAN_MOTION":15.44075934,"ECCENTRICITY":0.00073904,"INCLINATION":97.3838,"RA_OF_ASC_NODE":285.4163,"ARG_OF_PERICENTER":66.087,"MEAN_ANOMALY":294.1152,"EPHEMERIS_TYPE":0,"NORAD_CAT_ID":58259,"ELEMENT_SET_NO":999,"REV_AT_EPOCH":15030,"BSTAR":0.00021180997,"MEAN_MOTION_DOT":0.00009599,"MEAN_MOTION_DDOT":0},{"OBJECT_NAME":"LEMUR-2-JK0903EM1407","OBJECT_ID":"2023-174CJ","EPOCH":"2026-07-19T05:48:58.470624","CLASSIFICATION_TYPE":"U","MEAN_MOTION":15.53202178,"ECCENTRICITY":0.00032021,"INCLINATION":97.3917,"RA_OF_ASC_NODE":291.6526,"ARG_OF_PERICENTER":16.8927,"MEAN_ANOMALY":343.2432,"EPHEMERIS_TYPE":0,"NORAD_CAT_ID":58336,"ELEMENT_SET_NO":999,"REV_AT_EPOCH":15070,"BSTAR":0.00025442426,"MEAN_MOTION_DOT":0.00015892,"MEAN_MOTION_DDOT":0},{"OBJECT_NAME":"LEMUR-2-MJR092620","OBJECT_ID":"2023-174CN","EPOCH":"2026-07-19T06:34:21.419328","CLASSIFICATION_TYPE":"U","MEAN_MOTION":15.45953289,"ECCENTRICITY":0.00049071,"INCLINATION":97.3969,"RA_OF_ASC_NODE":290.9195,"ARG_OF_PERICENTER":15.5389,"MEAN_ANOMALY":344.601,"EPHEMERIS_TYPE":0,"NORAD_CAT_ID":58340,"ELEMENT_SET_NO":999,"REV_AT_EPOCH":15060,"BSTAR":0.00022051911,"MEAN_MOTION_DOT":0.00010654,"MEAN_MOTION_DDOT":0},{"OBJECT_NAME":"LEMUR-2-NIMBUS2000","OBJECT_ID":"2024-022A","EPOCH":"2026-07-19T03:56:26.377152","CLASSIFICATION_TYPE":"U","MEAN_MOTION":15.41217426,"ECCENTRICITY":0.00083364,"INCLINATION":97.408,"RA_OF_ASC_NODE":50.5905,"ARG_OF_PERICENTER":14.9087,"MEAN_ANOMALY":345.2404,"EPHEMERIS_TYPE":0,"NORAD_CAT_ID":58899,"ELEMENT_SET_NO":999,"REV_AT_EPOCH":13719,"BSTAR":0.00028424138,"MEAN_MOTION_DOT":0.00011736,"MEAN_MOTION_DDOT":0}]}
